*******************************************************************************
 Revised: July 31, 2013             Moon / (Earth)                          301
 
 GEOPHYSICAL DATA (updated 2018-Aug-15):
  Vol. mean radius, km  = 1737.53+-0.03    Mass, x10^22 kg       =    7.349
  Radius (gravity), km  = 1738.0           Surface emissivity    =    0.92
  Radius (IAU), km      = 1737.4           GM, km^3/s^2          = 4902.800066
  Density, g/cm^3       =    3.3437        GM 1-sigma, km^3/s^2  =  +-0.0001  
  V(1,0)                =   +0.21          Surface accel., m/s^2 =    1.62
  Earth/Moon mass ratio = 81.3005690769    Farside crust. thick. = ~80 - 90 km
  Mean crustal density  = 2.97+-.07 g/cm^3 Nearside crust. thick.= 58+-8 km 
  Heat flow, Apollo 15  = 3.1+-.6 mW/m^2   Mean angular diameter = 31'05.2"
  Heat flow, Apollo 17  = 2.2+-.5 mW/m^2   Sid. rot. rate, rad/s = 0.0000026617
  Geometric Albedo      = 0.12             Mean solar day        = 29.5306 d
  Obliquity to orbit    = 6.67 deg         Orbit period          = 27.321582 d
  Semi-major axis, a    = 384400 km        Eccentricity          = 0.05490
  Mean motion, rad/s    = 2.6616995x10^-6  Inclination           = 5.145 deg
  Apsidal period        = 3231.50 d        Nodal period          = 6798.38 d
                                 Perihelion  Aphelion    Mean
  Solar Constant (W/m^2)         1414+-7     1323+-7     1368+-7
  Maximum Planetary IR (W/m^2)   1314        1226        1268
  Minimum Planetary IR (W/m^2)      5.2         5.2         5.2
********************************************************************************


*******************************************************************************
Ephemeris / WWW_USER Mon Feb 24 03:52:59 2025 Pasadena, USA      / Horizons
*******************************************************************************
Target body name: Moon (301)                      {source: DE441}
Center body name: Earth-Moon Barycenter (3)       {source: DE441}
Center-site name: BODY CENTER
*******************************************************************************
Start time      : A.D. 2023-Apr-27 00:00:00.0000 TDB
Stop  time      : A.D. 2023-Jun-02 00:00:00.0000 TDB
Step-size       : 1440 minutes
*******************************************************************************
Center geodetic : 0.0, 0.0, 0.0                   {E-lon(deg),Lat(deg),Alt(km)}
Center cylindric: 0.0, 0.0, 0.0                   {E-lon(deg),Dxy(km),Dz(km)}
Center radii    : (undefined)
Output units    : KM-S
Calendar mode   : Mixed Julian/Gregorian
Output type     : GEOMETRIC cartesian states
Output format   : 3 (position, velocity, LT, range, range-rate)
Reference frame : Ecliptic of J2000.0
*******************************************************************************
            JDTDB,            Calendar Date (TDB),                      X,                      Y,                      Z,                     VX,                     VY,                     VZ,                     LT,                     RG,                     RR,
**************************************************************************************************************************************************************************************************************************************************************************
$$SOE
2460085.500000000, A.D. 2023-May-21 00:00:00.0000,  9.817481645078940E+04,  3.739860733545209E+05,  2.347121351554870E+04, -9.486780195581972E-01,  2.907234456213978E-01,  7.000838427585376E-02,  1.292124043521871E+00,  3.873690430483207E+05,  4.448835409928766E-02,
2460086.500000000, A.D. 2023-May-22 00:00:00.0000,  1.453023288853298E+04,  3.897668768866478E+05,  2.888861550861536E+04, -9.794174639143847E-01,  7.408074610293258E-02,  5.494841874243056E-02,  1.304589168228791E+00,  3.911059934234847E+05,  4.149882951162738E-02,
2460087.500000000, A.D. 2023-May-23 00:00:00.0000, -6.969368536814499E+04,  3.868469836507424E+05,  3.290187235295941E+04, -9.624791811118177E-01, -1.405325678896862E-01,  3.765087575496547E-02,  1.315741583049604E+00,  3.944494032752518E+05,  3.537311863369481E-02,
2460088.500000000, A.D. 2023-May-24 00:00:00.0000, -1.505016805117702E+05,  3.658042617126733E+05,  3.535506523431549E+04, -9.009786578222766E-01, -3.440324969711058E-01,  1.897588471254708E-02,  1.324688372191762E+00,  3.971315831833873E+05,  2.624103101084168E-02,
2460089.500000000, A.D. 2023-May-25 00:00:00.0000, -2.242220014468365E+05,  3.279413871827078E+05,  3.616468890348230E+04, -7.991951903748975E-01, -5.287110995321492E-01, -2.641897030918605E-04,  1.330619511935713E+00,  3.989096941459677E+05,  1.454298925242640E-02,
2460090.500000000, A.D. 2023-May-26 00:00:00.0000, -2.875854973935806E+05,  2.751733227869603E+05,  3.531490877438872E+04, -6.621098820207039E-01, -6.880613242744814E-01, -1.931512665856122E-02,  1.332891900735001E+00,  3.995909391696379E+05,  9.884281491260786E-04,
2460091.500000000, A.D. 2023-May-27 00:00:00.0000, -3.377743030348880E+05,  2.099353708244849E+05,  3.285281842839916E+04, -4.951678304035906E-01, -8.164958255666095E-01, -3.747178541443302E-02,  1.331098994055542E+00,  3.990534392692383E+05, -1.350054491291587E-02,
2460092.500000000, A.D. 2023-May-28 00:00:00.0000, -3.724598812807842E+05,  1.351159711138865E+05,  2.888501377212065E+04, -3.042666201752453E-01, -9.090730094771988E-01, -5.405819755131031E-02,  1.325123127974780E+00,  3.972619196882078E+05, -2.785226696333613E-02,
2460093.500000000, A.D. 2023-May-29 00:00:00.0000, -3.898487728089847E+05,  5.400926503222949E+04,  2.357602591168529E+04, -9.593849469588195E-02, -9.613286414618247E-01, -6.840600210837211E-02,  1.315168803024051E+00,  3.942776881434980E+05, -4.091504825351542E-02,
2460094.500000000, A.D. 2023-May-30 00:00:00.0000, -3.887503954936515E+05, -2.972547382178231E+04,  1.714834691942108E+04,  1.223338399659320E-01, -9.692986941707248E-01, -7.984078175346432E-02,  1.301774383350590E+00,  3.902621421461077E+05, -5.153869915019701E-02,
2460095.500000000, A.D. 2023-May-31 00:00:00.0000, -3.686746777500106E+05, -1.121173527020852E+05,  9.882928061025483E+03,  3.417616284395259E-01, -9.298068946176976E-01, -8.768656056947410E-02,  1.285797609383756E+00,  3.854724258076799E+05, -5.867597560633187E-02,
2460096.500000000, A.D. 2023-Jun-01 00:00:00.0000, -3.299572210892312E+05, -1.889754806377019E+05,  2.118123354390482E+03,  5.519967317542316E-01, -8.410629557946321E-01, -9.129896424407219E-02,  1.268368366284487E+00,  3.802472701778707E+05, -6.150843318234404E-02,
2460097.500000000, A.D. 2023-Jun-02 00:00:00.0000, -2.738950567406339E+05, -2.560452892334523E+05, -5.755776330354856E+03,  7.411758571071183E-01, -7.035497006433019E-01, -9.013496053464357E-02,  1.250802294918943E+00,  3.749810944657910E+05, -5.958972466403857E-02,
